{"type":"FeatureCollection","features":[{"type":"Feature","properties":{"name":"Iquique","comuna":"Iquique","cut":"01101","metro":"Iquique-Alto Hospicio","es_bbox":false},"geometry":{"type":"Polygon","coordinates":[[[-70.12,-20.1552],[-70.1101,-20.2055],[-70.1112,-20.2335],[-70.1192,-20.2335],[-70.1198,-20.2422],[-70.1113,-20.2493],[-70.1099,-20.2744],[-70.1244,-20.3158],[-70.1095,-20.3513],[-70.09185192307692,-20.414],[-70.1622986013986,-20.414],[-70.1589,-20.408],[-70.1684,-20.396],[-70.1791,-20.3788],[-70.1826,-20.3667],[-70.1822,-20.3594],[-70.1766,-20.3506],[-70.1543,-20.3398],[-70.1392,-20.3221],[-70.1388,-20.3123],[-70.1298,-20.2881],[-70.1333,-20.2735],[-70.1308,-20.2647],[-70.1377,-20.2514],[-70.1507,-20.2391],[-70.1485,-20.2285],[-70.159,-20.2152],[-70.1407,-20.2011],[-70.1375,-20.1917],[-70.1405,-20.1782],[-70.1524,-20.1639],[-70.1523,-20.1569],[-70.1446125,-20.1509],[-70.11815266990291,-20.1509],[-70.12,-20.1552]]]}},{"type":"Feature","properties":{"name":"Alto Hospicio","comuna":"Alto Hospicio","cut":"01107","metro":"Iquique-Alto Hospicio","es_bbox":false},"geometry":{"type":"Polygon","coordinates":[[[-70.1244,-20.3158],[-70.1099,-20.2744],[-70.1113,-20.2493],[-70.1198,-20.2422],[-70.1192,-20.2335],[-70.1112,-20.2335],[-70.1101,-20.2055],[-70.12,-20.1552],[-70.11815266990291,-20.1509],[-70.0038,-20.1509],[-70.0038,-20.31200066006601],[-70.0282,-20.3058],[-70.1095,-20.3513],[-70.1244,-20.3158]]]}}]}