{"type":"FeatureCollection","features":[{"type":"Feature","properties":{"cut":1101,"comuna":"IQUIQUE"},"geometry":{"type":"Polygon","coordinates":[[[-70.21057357609723,-20.81158139145359],[-70.19650450199993,-20.80605278799993],[-70.19360080599995,-20.803335774999937],[-70.19304158799991,-20.80097120599993],[-70.1851132239999,-20.79768754999992],[-70.1863308639999,-20.793657352999958],[-70.1885672059999,-20.792572891999953],[-70.18742960499992,-20.789530374999913],[-70.18854352299991,-20.788815405999912],[-70.18758616199995,-20.788260544999957],[-70.18933424499994,-20.78715245999996],[-70.18795488599994,-20.782556727999918],[-70.18929842499995,-20.78257981899992],[-70.19032256699995,-20.77847493699994],[-70.19405994199991,-20.774847906999923],[-70.19291514399993,-20.772345361999953],[-70.19444970199993,-20.76747026499993],[-70.19372039699994,-20.763048212999934],[-70.19692553399994,-20.761865144999945],[-70.19583250599993,-20.758638796999946],[-70.19949224099992,-20.753246755999953],[-70.19685272599992,-20.75042531799994],[-70.19763624799992,-20.749340073999917],[-70.19402444799994,-20.748404187999938],[-70.19306072699993,-20.74700715399996],[-70.19132142599994,-20.74771028099991],[-70.18621841099991,-20.743955503999928],[-70.18381165799991,-20.738540738999916],[-70.18409629099995,-20.735288605999926],[-70.18628671199991,-20.732098923999956],[-70.19095777599995,-20.730576536999934],[-70.19145743299993,-20.728424292999932],[-70.19609584599993,-20.72715034999993],[-70.1985397819999,-20.714650973999937],[-70.19707329399995,-20.712048083999946],[-70.19771867999992,-20.710202550999952],[-70.19323675499993,-20.706475990999934],[-70.19367919599995,-20.704356530999917],[-70.19138602399994,-20.703141444999915],[-70.18997500199993,-20.704673709999952],[-70.18895010199992,-20.70348221699993],[-70.19115026199995,-20.699768718999906],[-70.19027308599993,-20.698387245999925],[-70.19182710699994,-20.698273919999906],[-70.18976989399994,-20.697872420999943],[-70.1909661389999,-20.696028502999923],[-70.18799153999993,-20.69422958599995],[-70.18733512099993,-20.689504602999932],[-70.18979244399992,-20.68825668599993],[-70.1892838469999,-20.681889395999917],[-70.19209847799993,-20.680865740999934],[-70.19251219699993,-20.679480739999917],[-70.19074501599994,-20.676512715999934],[-70.18718858999995,-20.67509031299994],[-70.18839552799994,-20.672425693999912],[-70.18633911699993,-20.670604195999942],[-70.18913389799991,-20.667054003999908],[-70.18831174499991,-20.66462602899992],[-70.1862292859999,-20.66328841299992],[-70.18577899799993,-20.660728926999923],[-70.18286999999992,-20.660169999999937],[-70.18219999999991,-20.657679999999914],[-70.18309999999991,-20.648489999999924],[-70.1855799999999,-20.646949999999947],[-70.18517999999995,-20.644399999999905],[-70.18832999999995,-20.644199999999955],[-70.19175999999993,-20.640739998999948],[-70.19045999999992,-20.63772999999992],[-70.19311999999991,-20.63465999999994],[-70.19378999999992,-20.62966999999992],[-70.19546999999994,-20.62874999999991],[-70.1982999999999,-20.623419999999953],[-70.19796999999994,-20.613839999999925],[-70.19938250599995,-20.613523926999903],[-70.1995434129999,-20.609791985999948],[-70.19660548399992,-20.606453659999943],[-70.19772783199994,-20.604104697999958],[-70.19670374999993,-20.59981568099994],[-70.1911882309999,-20.594985735999956],[-70.19046573399993,-20.590168497999912],[-70.19139873299991,-20.58827512399995],[-70.19326829799991,-20.58789129999991],[-70.19083239699995,-20.58297835099995],[-70.1940419039999,-20.58019300399991],[-70.19044794099995,-20.577572800999917],[-70.19077575999995,-20.575678214999925],[-70.19259537399995,-20.57476252999993],[-70.19169062299994,-20.574106444999927],[-70.1933800299999,-20.571424038999908],[-70.19258461299995,-20.568967338999926],[-70.19389343199992,-20.568442228999913],[-70.19349782499995,-20.566015029999903],[-70.19701015699991,-20.566979957999934],[-70.19567695499995,-20.562903454999912],[-70.19664319199995,-20.560907682999925],[-70.19437870399992,-20.55523556299994],[-70.19547403299993,-20.55516349599992],[-70.1954633279999,-20.553787326999952],[-70.19354846499994,-20.551959266999916],[-70.19551901599993,-20.54499121999993],[-70.19728496899995,-20.543097445999933],[-70.19974804199995,-20.54277935999994],[-70.19833476199994,-20.540122665999945],[-70.20023784299991,-20.538260171999923],[-70.19744142699994,-20.533871228999942],[-70.1986222139999,-20.533067427999924],[-70.19607999999994,-20.527549999999906],[-70.19439999999992,-20.526839999999936],[-70.19225999999992,-20.52798999999993],[-70.18756999999994,-20.526539999999954],[-70.1871999999999,-20.523259999999937],[-70.18491999999992,-20.52171999999996],[-70.18418999999994,-20.515559999999937],[-70.18083999999993,-20.513849999999934],[-70.17503999999991,-20.505169999999907],[-70.17014999999992,-20.504419999999925],[-70.16613237799993,-20.50065122099994],[-70.16588225699991,-20.499265886999922],[-70.16731969999995,-20.499213219999945],[-70.16769394599993,-20.497398984999904],[-70.16249577299993,-20.48903112599993],[-70.16167660799994,-20.484805665999943],[-70.16574804299995,-20.48112423099991],[-70.16894232499993,-20.481079112999907],[-70.16941468199991,-20.478810754999927],[-70.1678755499999,-20.476958098999944],[-70.1693464249999,-20.473115734999908],[-70.16472049099991,-20.473457298999904],[-70.16228957999994,-20.471510017999947],[-70.15938593899995,-20.466357328999948],[-70.1595986829999,-20.462328490999937],[-70.15822501999992,-20.46145025599992],[-70.16048599999993,-20.458247354999912],[-70.15814752199992,-20.454359479999937],[-70.16053728199995,-20.453796474999933],[-70.1615990379999,-20.451876099999936],[-70.16241973599995,-20.445314382999925],[-70.15942739099995,-20.443501856999944],[-70.15845677599992,-20.440695985999923],[-70.1619044009999,-20.437926620999917],[-70.16090826599992,-20.437047642999914],[-70.16244548599991,-20.435445139999956],[-70.16108885199992,-20.434474352999928],[-70.1630037619999,-20.42993451199993],[-70.16215907299994,-20.429252378999934],[-70.16508957999991,-20.428196421999928],[-70.1659226509999,-20.426009755999928],[-70.16415912799994,-20.42408542499993],[-70.16644865699993,-20.42419258399991],[-70.16699463999993,-20.422375276999958],[-70.16301300999993,-20.41387539099992],[-70.16030911199994,-20.411797117999924],[-70.15867367899995,-20.408260772999938],[-70.1648207419999,-20.404422894999925],[-70.1622898359999,-20.402739195999914],[-70.16223884099992,-20.401269767999906],[-70.16838746999991,-20.395953620999933],[-70.16787924899995,-20.392070118999925],[-70.17261132599992,-20.390511554999932],[-70.17310399399992,-20.387804073999916],[-70.1775458539999,-20.38409152899993],[-70.1775286699999,-20.38182831799992],[-70.17890688099993,-20.381628158999945],[-70.17834536999993,-20.37901111599996],[-70.18209634399994,-20.378950795999913],[-70.1823220789999,-20.377150970999935],[-70.1803256419999,-20.374019483999916],[-70.1834334909999,-20.362904904999937],[-70.18179340299992,-20.361631131999957],[-70.1818309439999,-20.358324586999913],[-70.17663654799992,-20.350636909999935],[-70.17069999999995,-20.350389999999948],[-70.16925999999995,-20.348379999999906],[-70.15959999899991,-20.344379999999944],[-70.15849999999995,-20.34230999999994],[-70.15488999899992,-20.34086999999994],[-70.15467999999993,-20.33782999999994],[-70.15193999899992,-20.335869999999943],[-70.1517399999999,-20.33319999999992],[-70.1453899999999,-20.331969999999956],[-70.14290999899993,-20.328769999999906],[-70.14204999999993,-20.324949999999944],[-70.1391999999999,-20.322089999999946],[-70.1377799999999,-20.315999999999917],[-70.13881999999995,-20.312349999999924],[-70.13697999999994,-20.307169999999928],[-70.1373099999999,-20.304649999999924],[-70.13555488899993,-20.301668716999927],[-70.13684999999992,-20.30018999999993],[-70.13438619499993,-20.29733005299994],[-70.1317126859999,-20.29758155199994],[-70.12936507099994,-20.295418326999936],[-70.13130632499991,-20.29396922099994],[-70.13190510699991,-20.29161623999994],[-70.13389541999993,-20.291079328999956],[-70.13318838499993,-20.288910979999912],[-70.1292308749999,-20.287057254999922],[-70.1304537119999,-20.284763497999904],[-70.12973306399994,-20.280539741999917],[-70.13342508699992,-20.27429525799994],[-70.13134922899991,-20.273116046999917],[-70.13249866899992,-20.27239482099992],[-70.13127542299992,-20.27160314999992],[-70.13259462499991,-20.27098024499992],[-70.1316213959999,-20.268519959999935],[-70.13247336699993,-20.26787748499993],[-70.13093179999993,-20.264277928999945],[-70.13455504099994,-20.260974785999906],[-70.1340535889999,-20.25825394499992],[-70.14007061899991,-20.24822215799992],[-70.15453667199995,-20.235193875999926],[-70.1544809959999,-20.233771222999906],[-70.15200296599994,-20.233087290999947],[-70.15345580099995,-20.23417098899995],[-70.14928231699992,-20.235002489999943],[-70.14772703299991,-20.23198140599993],[-70.1491346119999,-20.22740045499995],[-70.15645599399994,-20.218570305999947],[-70.1558775389999,-20.21735889999991],[-70.15820196299995,-20.21736617299996],[-70.1574218749999,-20.216070267999953],[-70.15934722499992,-20.21542511499996],[-70.15471323499992,-20.21287613399994],[-70.1545781239999,-20.211670840999943],[-70.15756602099992,-20.209650299999907],[-70.16157707799994,-20.21039141299991],[-70.16375987799995,-20.207576100999916],[-70.16115314399991,-20.206463967999923],[-70.15745658599991,-20.200254162999954],[-70.15950561699992,-20.20506989699993],[-70.15826550499992,-20.205705966999915],[-70.15675577099995,-20.203077719999953],[-70.15533328399994,-20.203087398999912],[-70.15717555999993,-20.205740317999926],[-70.15514241099993,-20.206467449999934],[-70.15706622999994,-20.20591268599992],[-70.15721700299991,-20.207090768999933],[-70.15536237999993,-20.20721591399996],[-70.1550280539999,-20.210588191999932],[-70.15351311499995,-20.211072487999957],[-70.1518720489999,-20.210066810999933],[-70.1513474329999,-20.20774823599993],[-70.14770235399993,-20.205454585999917],[-70.14815212499991,-20.204060243999947],[-70.14667005699994,-20.20547487899995],[-70.14304272399994,-20.204039345999945],[-70.14125584499993,-20.201679245999912],[-70.14299763699995,-20.200484325999923],[-70.14072138799992,-20.201145126999904],[-70.13805795399992,-20.194539652999936],[-70.13746748599993,-20.189786480999942],[-70.14048999999994,-20.18187999999992],[-70.14050999999995,-20.178209999999922],[-70.1423299999999,-20.175949999999943],[-70.14395999999994,-20.17614999999995],[-70.1435899999999,-20.17348999999996],[-70.15237999999994,-20.163899999999956],[-70.15170999999992,-20.162199999999928],[-70.1529799999999,-20.158679999999947],[-70.1478699999999,-20.151239999999916],[-70.14381999999995,-20.15035999999992],[-70.14112999999992,-20.14701999999994],[-70.13969999999995,-20.14229999999992],[-70.13794999999993,-20.14175999999992],[-70.13814999999994,-20.133679999999913],[-70.1358899999999,-20.13196999999991],[-70.13533999999993,-20.128819999999905],[-70.13407999999993,-20.128559999999936],[-70.13355999999993,-20.121229999999912],[-70.13103999999993,-20.118729999999914],[-70.1338399999999,-20.112739999999917],[-70.1275599999999,-20.106379999999945],[-70.12714999999992,-20.101629999999943],[-70.1219999999999,-20.089839999999924],[-70.12294999999995,-20.084919999999954],[-70.1248799999999,-20.08140999999995],[-70.12748999999991,-20.079729999999927],[-70.1259599999999,-20.077069999999935],[-70.12725999999992,-20.073579999999936],[-70.12972999999994,-20.070679999999925],[-70.13166999999993,-20.070349999999905],[-70.13170999999994,-20.068449999999928],[-70.13398999999993,-20.068289999999934],[-70.13260999999994,-20.066779999999937],[-70.13265879999994,-20.06332001599992],[-70.09893999999991,-20.085039999999935],[-70.1022999999999,-20.11400999999995],[-70.12000999999992,-20.155189999999948],[-70.11014999999992,-20.205539999999928],[-70.11122999999992,-20.233549999999923],[-70.11915362299993,-20.23349270999995],[-70.11861999899992,-20.23756999999995],[-70.11987999999991,-20.24204999999995],[-70.11508999999995,-20.248449998999945],[-70.1106486939999,-20.249601227999904],[-70.11188426599995,-20.250974865999922],[-70.11171786499995,-20.253838248999955],[-70.11013194899994,-20.255762297999922],[-70.11210810199992,-20.257670822999955],[-70.11095539999991,-20.26250297699994],[-70.10957784899995,-20.263136931999952],[-70.11080748499995,-20.263957302999927],[-70.11135906999993,-20.273556775999907],[-70.10985462199994,-20.274377225999956],[-70.1198140859999,-20.302764460999924],[-70.12238450399991,-20.302559514999928],[-70.1228167729999,-20.303764285999932],[-70.12065510499991,-20.305161867999914],[-70.12437999999992,-20.315779999999904],[-70.10949999999991,-20.351309999999955],[-70.07733999999994,-20.465689999999938],[-70.0289499989999,-20.58047999999991],[-70.05235999999991,-20.694939999999917],[-69.99582999899991,-20.83615999999995],[-69.81984999999992,-21.117099999999937],[-69.89074999999991,-21.110219999999913],[-69.8816799999999,-21.304539999999918],[-69.92974999899991,-21.37295999999992],[-69.93023450499993,-21.424600488999943],[-69.9403908999999,-21.422990540999933],[-69.94255888899994,-21.425366973999928],[-69.95211901199991,-21.425527578999947],[-69.95862901499993,-21.42821929699994],[-69.96052819599993,-21.430374250999932],[-69.96716091999991,-21.432269662999943],[-69.96930076199993,-21.43155540999993],[-69.9717713309999,-21.433081045999927],[-69.98301894799994,-21.434902947999944],[-69.98933167699994,-21.43319887499996],[-69.99618116599993,-21.437521727999922],[-69.99855081099992,-21.43694923299995],[-70.00716052399991,-21.438896290999935],[-70.01065074599995,-21.436188537999953],[-70.02093893299991,-21.43411664799993],[-70.02682944999992,-21.429201359999922],[-70.03252520399991,-21.429692209999928],[-70.0353442519999,-21.42664843299991],[-70.03981081099994,-21.424714604999906],[-70.04755065099994,-21.425741237999944],[-70.05827711799992,-21.430006745999947],[-70.06488999999993,-21.421049999999923],[-70.06775999999991,-21.413569999999936],[-70.07114999999993,-21.409569999999917],[-70.07295999999991,-21.404669999999953],[-70.07250999999991,-21.402659999999912],[-70.0778699999999,-21.395049999999912],[-70.08010999999993,-21.387489999999957],[-70.08580999999992,-21.381419999999935],[-70.08727999999991,-21.37754999999993],[-70.08616999999992,-21.374349999999936],[-70.09015999999991,-21.368279999999913],[-70.09163999999993,-21.358589999999936],[-70.0950811859999,-21.353587709999942],[-70.0958208369999,-21.34974068699995],[-70.09753248699991,-21.348862788999952],[-70.09767521899994,-21.345843799999955],[-70.09584930499994,-21.344679452999912],[-70.09785199799995,-21.338521922999917],[-70.08663800599993,-21.336675629999945],[-70.0837386099999,-21.333273874999918],[-70.0821124389999,-21.32777442999992],[-70.07568331199991,-21.325045253999917],[-70.07016307399994,-21.32005807999991],[-70.06611457899993,-21.308390629999906],[-70.06663849599994,-21.294024277999938],[-70.07244537399993,-21.284039278999956],[-70.07223001099993,-21.28052727599993],[-70.07613780699995,-21.274044399999923],[-70.0759054049999,-21.271604320999927],[-70.07942018499995,-21.268453465999926],[-70.07911040599993,-21.266729717999908],[-70.08376826999995,-21.25791639299996],[-70.08653507799994,-21.25696219699995],[-70.0859849709999,-21.253994079999927],[-70.08774865099991,-21.253595773999905],[-70.08663706599992,-21.25286002599995],[-70.08774010799993,-21.250183058999937],[-70.08461263299995,-21.249212650999937],[-70.08369541099995,-21.247957137999947],[-70.08453181499993,-21.24719336599992],[-70.08220176499992,-21.244631340999945],[-70.08260012199992,-21.242663147999906],[-70.08077800199993,-21.24182357399991],[-70.08069492999994,-21.239487010999937],[-70.08254792699995,-21.237776476999954],[-70.0814347669999,-21.236804667999934],[-70.08235173999992,-21.23577727499992],[-70.0815561469999,-21.234207544999947],[-70.08301379999995,-21.233753216999958],[-70.08205812999995,-21.230605813999944],[-70.08520221799995,-21.227134147999948],[-70.0845695939999,-21.22640303499992],[-70.08623653099994,-21.22523537299992],[-70.0865020949999,-21.223179029999926],[-70.08822354999995,-21.222699745999932],[-70.08758951499993,-21.221775184999956],[-70.08941227299994,-21.22048266999991],[-70.09056286999993,-21.216451099999915],[-70.09422495399991,-21.21502282499995],[-70.0934904049999,-21.21389772999993],[-70.09511092899993,-21.213179132999926],[-70.09413306999994,-21.211513906999926],[-70.0956404879999,-21.21112880399994],[-70.09335904499994,-21.207266485999924],[-70.09538922199994,-21.206154429999913],[-70.09627490499992,-21.204279779999922],[-70.0952196849999,-21.20330767599995],[-70.09633415199994,-21.203362355999957],[-70.0964240369999,-21.202123574999916],[-70.09420059599995,-21.200516725999933],[-70.09296125499992,-21.19694557999992],[-70.09502888399993,-21.191250600999922],[-70.09830958299995,-21.186265447999915],[-70.10250132099992,-21.183506847999922],[-70.10203202799994,-21.18168903499992],[-70.10533611199992,-21.177637791999928],[-70.11074806199991,-21.17556769899994],[-70.1090986179999,-21.17283138399995],[-70.10995848899995,-21.166031741999916],[-70.11150193299994,-21.16123326999991],[-70.11574134499995,-21.15820488399993],[-70.11438397699993,-21.153883316999952],[-70.11534364999994,-21.15017982899991],[-70.12511737499995,-21.13915824599991],[-70.12718894799991,-21.135241468999936],[-70.13349626699994,-21.129095497999913],[-70.13486591799995,-21.12945050099995],[-70.13477202399991,-21.128200270999912],[-70.13221123999995,-21.12710509199991],[-70.13146604199994,-21.124529182999936],[-70.12765896999991,-21.122076592999917],[-70.1271838749999,-21.11615003399993],[-70.12140181099994,-21.111319520999928],[-70.12220591099992,-21.105491341999937],[-70.12140241399993,-21.10466142799993],[-70.12318452999995,-21.103244386999904],[-70.12285856599993,-21.10028563499992],[-70.12430999999992,-21.098679999999945],[-70.12367999999992,-21.092949999999917],[-70.12513999999993,-21.087419999999952],[-70.13143999999994,-21.079579999999908],[-70.13663999999994,-21.078859999999906],[-70.13872999999995,-21.076409999999953],[-70.13853999999992,-21.073539999999923],[-70.14387999999991,-21.070139999999924],[-70.14459999999991,-21.067019999999957],[-70.1471699999999,-21.06448999999992],[-70.14870999999994,-21.06478999999996],[-70.14854999999994,-21.062919999999906],[-70.15204999999992,-21.06230999999991],[-70.15181999999993,-21.05983999999995],[-70.1550499999999,-21.058769999999924],[-70.15521999999993,-21.055309999999906],[-70.15607999999992,-21.055819999999926],[-70.15533999999991,-21.053549999999916],[-70.15809999999993,-21.046999999999912],[-70.16231999999991,-21.045099999999934],[-70.16424999999992,-21.037129999999934],[-70.16602999999992,-21.037199999999928],[-70.16548999899993,-21.035799999999938],[-70.16727999999995,-21.034779999999955],[-70.16576999999995,-21.033859999999947],[-70.1672099999999,-21.03293999999994],[-70.16521999999992,-21.032009999999957],[-70.16589999999991,-21.030189999999948],[-70.16787999999991,-21.03012999999993],[-70.16904999999991,-21.02768999999995],[-70.17145999999991,-21.027839999999912],[-70.17190999999991,-21.026479999999935],[-70.1756999989999,-21.02648999999991],[-70.1757399999999,-21.025229999999908],[-70.17794999999995,-21.023949999999957],[-70.17328999999995,-21.019009999999923],[-70.17239999999993,-21.01200999999992],[-70.1715799989999,-21.012689999999907],[-70.17079999899994,-21.009799999999927],[-70.16845999999993,-21.009189999999933],[-70.16563999999994,-21.005399999999952],[-70.16486017699992,-21.000187684999958],[-70.16614984999995,-20.998281662999943],[-70.16298499599992,-20.996916553999938],[-70.1637058309999,-20.995935928999927],[-70.16250451399992,-20.993956597999954],[-70.15570999999994,-20.98789999999991],[-70.15536999999995,-20.98258999999996],[-70.1585399999999,-20.97935999999993],[-70.15828999999991,-20.977319999999906],[-70.15309999999994,-20.973359999999957],[-70.14965999999993,-20.97341999999992],[-70.14692999999994,-20.96920999999992],[-70.14720999999992,-20.966039999999907],[-70.14266999999995,-20.96222999999992],[-70.14273999999995,-20.960219999999936],[-70.13960999999995,-20.95951999999994],[-70.13083999999992,-20.950759999999946],[-70.12694999999991,-20.941609999999912],[-70.12690999999995,-20.933529999999905],[-70.13328999899994,-20.92065999999994],[-70.13941999999992,-20.91751999999991],[-70.14260999999993,-20.91417999999993],[-70.1416299999999,-20.91023999999993],[-70.1365899999999,-20.906859999999938],[-70.13728999999995,-20.90205999999995],[-70.14114999999993,-20.90304999999995],[-70.14179999999993,-20.902189999999905],[-70.13675048099992,-20.892180321999945],[-70.13841610399993,-20.88952722299996],[-70.13738999999993,-20.88528999999994],[-70.13900999999993,-20.881869999999935],[-70.1424199999999,-20.88038999999992],[-70.14284999999995,-20.87354999999991],[-70.14389999999992,-20.870939999999905],[-70.14665999999994,-20.869599999999934],[-70.14666999999992,-20.86662999999993],[-70.15172999999993,-20.86119999999994],[-70.15525999999994,-20.861059999999952],[-70.15499999999992,-20.85749999999996],[-70.16603999999995,-20.844529999999907],[-70.17360999999994,-20.83850999999993],[-70.17789999999991,-20.83683999999994],[-70.17962999899993,-20.837699999999927],[-70.17952999999994,-20.833139999999958],[-70.18895667499993,-20.821751307999932],[-70.19199528599995,-20.81967862299996],[-70.19472512999994,-20.82069620799996],[-70.19435525799992,-20.818938745999958],[-70.19538156099992,-20.818013779999944],[-70.1967562239999,-20.819029978999936],[-70.19814670699992,-20.816234438999913],[-70.20017963999993,-20.81626341099991],[-70.20007828299993,-20.81506556699992],[-70.20325269099993,-20.815669589999914],[-70.20365846699991,-20.814705740999955],[-70.20504549099991,-20.815829763999943],[-70.20447532199995,-20.81344746299993],[-70.20584413199992,-20.812282481999944],[-70.20700849499991,-20.812846571999955],[-70.20898941899992,-20.81211996399992],[-70.20862724199992,-20.81134507899992],[-70.21135063699995,-20.812999513999955],[-70.21057357609723,-20.81158139145359]]]}},{"type":"Feature","properties":{"cut":1107,"comuna":"ALTO HOSPICIO"},"geometry":{"type":"Polygon","coordinates":[[[-69.91376999999994,-20.22900999999996],[-69.89304999899991,-20.048539999999946],[-70.09893999999991,-20.085039999999935],[-70.1022999999999,-20.11400999999995],[-70.12000999999992,-20.155189999999948],[-70.11014999999992,-20.205539999999928],[-70.11122999999992,-20.233549999999923],[-70.11915362299993,-20.23349270999995],[-70.11861999899992,-20.23756999999995],[-70.11987999999991,-20.24204999999995],[-70.11508999999995,-20.248449998999945],[-70.1106486939999,-20.249601227999904],[-70.11188426599995,-20.250974865999922],[-70.11171786499995,-20.253838248999955],[-70.11013194899994,-20.255762297999922],[-70.11210810199992,-20.257670822999955],[-70.11095539999991,-20.26250297699994],[-70.10957784899995,-20.263136931999952],[-70.11080748499995,-20.263957302999927],[-70.11135906999993,-20.273556775999907],[-70.10985462199994,-20.274377225999956],[-70.1198140859999,-20.302764460999924],[-70.12238450399991,-20.302559514999928],[-70.1228167729999,-20.303764285999932],[-70.12065510499991,-20.305161867999914],[-70.12437999999992,-20.315779999999904],[-70.10949999999991,-20.351309999999955],[-70.02821999999992,-20.305829999999958],[-69.96762000399991,-20.321179998999924],[-69.91376999999994,-20.22900999999996]]]}},{"type":"Feature","properties":{"cut":1401,"comuna":"POZO ALMONTE"},"geometry":{"type":"Polygon","coordinates":[[[-68.99252634999993,-19.92022832899994],[-68.9993071479999,-19.915189178999924],[-69.00623061699991,-19.914427306999926],[-69.01767915999994,-19.920947070999944],[-69.0213639609999,-19.92075462999992],[-69.02683130199995,-19.92330980899993],[-69.03745778899992,-19.922421985999904],[-69.04388691499992,-19.925965641999937],[-69.05299576099992,-19.92839493999992],[-69.05420462899991,-19.93026968299995],[-69.05269004999991,-19.94072971399993],[-69.06087044999992,-19.94333466699993],[-69.0637372299999,-19.945443153999918],[-69.07077022399994,-19.94485452099991],[-69.08386994099993,-19.962339996999958],[-69.08628749899992,-19.96342287999994],[-69.0951188109999,-19.963447665999922],[-69.09888599199991,-19.96707860899994],[-69.10979629999991,-19.970880983999905],[-69.11884469799992,-19.970582169999943],[-69.12341386199995,-19.968498863999912],[-69.12688441999995,-19.968379222999943],[-69.1325918789999,-19.975172271999952],[-69.14200096999991,-19.97947184499992],[-69.1465470839999,-19.986030969999945],[-69.1527790259999,-19.988809046999904],[-69.17428879599993,-19.99007833199994],[-69.17788575199995,-19.991744758999914],[-69.18450232499993,-19.991474311999923],[-69.1964586119999,-19.98601199399991],[-69.2200725909999,-19.985017417999927],[-69.24538184399995,-19.978274916999908],[-69.27297269299993,-19.97509970099992],[-69.2822917549999,-19.97895246899992],[-69.29194444899991,-19.97861456299995],[-69.3242266179999,-19.98934016299995],[-69.81539000099991,-20.102149999999938],[-69.89304999899991,-20.048539999999946],[-69.91376999999994,-20.22900999999996],[-69.96762000399991,-20.321179998999924],[-70.02821999999992,-20.305829999999958],[-70.10949999999991,-20.351309999999955],[-70.07733999999994,-20.465689999999938],[-70.0289499989999,-20.58047999999991],[-70.05235999999991,-20.694939999999917],[-69.99582999899991,-20.83615999999995],[-69.81984999999992,-21.117099999999937],[-69.89074999999991,-21.110219999999913],[-69.8816799999999,-21.304539999999918],[-69.92974999899991,-21.37295999999992],[-69.93023450499993,-21.424600488999943],[-69.92472813799992,-21.426169113999947],[-69.91932362699993,-21.425603090999914],[-69.91238814499991,-21.429224419999912],[-69.90410602799994,-21.425140961999944],[-69.89941695699991,-21.430149695999944],[-69.89067840699994,-21.43160523499995],[-69.8844238069999,-21.434093336999922],[-69.88124391899993,-21.43687871499992],[-69.87347626799993,-21.436157172999913],[-69.8696762319999,-21.433508213999914],[-69.8633365039999,-21.43432955199995],[-69.86120887099992,-21.43684258099995],[-69.85812573099992,-21.43790968399992],[-69.85536333099992,-21.437248138999905],[-69.85303141599991,-21.439492298999937],[-69.8415391389999,-21.436801267999954],[-69.8310540729999,-21.44247013499995],[-69.8263372319999,-21.43919250899995],[-69.82327279499992,-21.439964604999943],[-69.81862951099993,-21.436483106999958],[-69.8094616379999,-21.439675717999933],[-69.8017944099999,-21.440545121999946],[-69.7962819679999,-21.438381739999954],[-69.79150672199995,-21.440214607999906],[-69.7876638109999,-21.437388644999942],[-69.7810336739999,-21.440699921999908],[-69.77895113999995,-21.437644569999918],[-69.78238992399992,-21.433475296999916],[-69.78205949599993,-21.432052123999938],[-69.7798161369999,-21.43092841899994],[-69.77683339099991,-21.42617600999995],[-69.7717429349999,-21.425160165999955],[-69.7681335229999,-21.423309592999942],[-69.76697806899995,-21.42068551199992],[-69.76424648299991,-21.42040226799992],[-69.76258099899991,-21.425403814999925],[-69.75583514399995,-21.42778536299994],[-69.75616014999991,-21.430847583999935],[-69.7548592679999,-21.43383794999994],[-69.74707098199991,-21.43767898099992],[-69.7381654799999,-21.44440762599993],[-69.73490112999991,-21.44444178799995],[-69.7342976079999,-21.44744254999995],[-69.73230842299995,-21.446112444999926],[-69.7285029489999,-21.44950332399992],[-69.72532869499992,-21.448537124999916],[-69.7227500589999,-21.45202772999994],[-69.71852332599991,-21.450448501999915],[-69.7133389569999,-21.452508611999917],[-69.71178255799992,-21.45045750999992],[-69.70770144599993,-21.449989772999913],[-69.70643446399993,-21.453123173999927],[-69.70151171599991,-21.455221412999947],[-69.7011330329999,-21.45318885599994],[-69.69752189999991,-21.452872251999906],[-69.69584881199995,-21.45076361799994],[-69.69372146899991,-21.450454228999945],[-69.6885703339999,-21.454161479999925],[-69.68802572899995,-21.458916306999924],[-69.6838989179999,-21.458693783999934],[-69.6785692279999,-21.461740145999954],[-69.67734095499992,-21.460964599999954],[-69.6670459419999,-21.46210575099991],[-69.66489399299991,-21.474458630999948],[-69.66097706099993,-21.478750531999935],[-69.66189085399992,-21.481419599999924],[-69.65558689699992,-21.485505047999936],[-69.64983678199991,-21.495580625999935],[-69.6442710039999,-21.49912287099994],[-69.6393202029999,-21.499749322999946],[-69.64074952199991,-21.506158055999947],[-69.63587277099992,-21.50986075499992],[-69.6353601209999,-21.514840569999933],[-69.62964747399991,-21.52044531599995],[-69.62977472499995,-21.526045477999958],[-69.6260140199999,-21.528976171999943],[-69.62762365999993,-21.531592820999947],[-69.63322987599992,-21.531595758999913],[-69.62760488099991,-21.53485810199993],[-69.62804400399995,-21.53777737599995],[-69.6250739649999,-21.540419996999958],[-69.62586543999993,-21.545710656999915],[-69.61058279699995,-21.550188179999907],[-69.61059882499995,-21.551777965999918],[-69.60613844699992,-21.55355951899992],[-69.60500856599992,-21.55584767299996],[-69.5987985189999,-21.560495888999924],[-69.59725506399991,-21.566694786999903],[-69.5945966509999,-21.56811033799994],[-69.59435108199995,-21.572418565999953],[-69.58632433399993,-21.583621513999958],[-69.58668286799991,-21.586066210999945],[-69.58472152999991,-21.587516071999914],[-69.58310863899993,-21.592198277999955],[-69.5780329339999,-21.596418721999953],[-69.57922358499991,-21.599012659999914],[-69.57877362799991,-21.60563233499994],[-69.57259724199992,-21.60992975499994],[-69.57209845299991,-21.61251247599995],[-69.56690246199992,-21.615338253999937],[-69.56617957999993,-21.62072970899993],[-69.5633843299999,-21.620794117999935],[-69.56274856199991,-21.623162812999908],[-69.55916464899991,-21.62329883399991],[-69.55790257799993,-21.621713146999923],[-69.5569404119999,-21.62325167499995],[-69.55775221099992,-21.624936420999916],[-69.55328908399991,-21.626486635999925],[-69.55126560399992,-21.630609919999927],[-69.31306999999993,-21.398169999999936],[-68.86080999899991,-21.28511999999995],[-68.9005100039999,-21.172950000999947],[-68.96731999999992,-21.097399999999936],[-68.96656999999993,-20.912809999999922],[-68.95447000099995,-20.828260003999958],[-68.95669007499993,-20.825932809999927],[-68.95936991199994,-20.817349073999935],[-68.96313172799995,-20.811410141999943],[-68.96448751199995,-20.803660976999936],[-68.9630916719999,-20.800209749999908],[-68.96544999999992,-20.79248999999993],[-68.95718650899994,-20.78402420799995],[-68.9582351219999,-20.776009685999952],[-68.9556321419999,-20.771613475999914],[-68.95772718699993,-20.76300876299996],[-68.96220397899992,-20.76105857899995],[-68.96330493199991,-20.75934593799991],[-68.95913470399995,-20.759717390999924],[-68.9561089849999,-20.75833842599991],[-68.95413464499995,-20.75642038999996],[-68.95400845499995,-20.752375582999946],[-68.95935480299994,-20.73436849399991],[-68.95870569099992,-20.73033125899991],[-68.96126424699992,-20.72582581699993],[-68.96155713099995,-20.711513416999935],[-68.96424916899991,-20.705065301999923],[-68.96213549799995,-20.694840874999954],[-68.96756671499992,-20.688971373999948],[-68.97428032999994,-20.687817689999918],[-68.97807059999991,-20.684591516999944],[-68.98492838399994,-20.68269019999991],[-68.99086298999993,-20.67921482199995],[-68.99666105099993,-20.67845725099994],[-68.9990471829999,-20.676674875999936],[-69.0027706649999,-20.675821654999936],[-69.00578188399993,-20.677284208999936],[-69.01216029699992,-20.675638421999906],[-69.0181828819999,-20.67792324599992],[-69.02035258799992,-20.68051307299993],[-69.03204119599991,-20.68481773399992],[-69.03480988799993,-20.684840350999934],[-69.03730140599993,-20.682253266999908],[-69.03968275599993,-20.68285265599991],[-69.04343422699992,-20.688268670999946],[-69.04517791099994,-20.687950618999935],[-69.04748472199992,-20.68964388799992],[-69.04768974199993,-20.685691421999934],[-69.04918999999995,-20.684999999999945],[-69.05250705599991,-20.686407475999943],[-69.05731418099992,-20.68478274599994],[-69.06160472699992,-20.686574956999948],[-69.06454946199995,-20.685364664999952],[-69.06862140599992,-20.68634134699994],[-69.07060999999993,-20.687719999999956],[-69.0728364119999,-20.69564842999995],[-69.0775691529999,-20.703740670999935],[-69.08296530699994,-20.710065543999917],[-69.0878173609999,-20.711691698999914],[-69.09028215199993,-20.714167463999956],[-69.09727065299995,-20.71503322299992],[-69.1026011379999,-20.719411863999937],[-69.11014723399995,-20.72046850399994],[-69.1182046749999,-20.724459101999912],[-69.1295135599999,-20.722889210999938],[-69.13504852199992,-20.724748646999956],[-69.13982915299994,-20.724515771999904],[-69.15380700599991,-20.71785112899994],[-69.16019577799995,-20.71653013899993],[-69.16925091599995,-20.71877603899992],[-69.17404641399992,-20.72127632699994],[-69.18356520899994,-20.72120381299993],[-69.1922282029999,-20.72870955099995],[-69.19921918299991,-20.729672312999924],[-69.20667347499995,-20.72859886799995],[-69.21173529999993,-20.730471509999916],[-69.21560173599994,-20.734286926999914],[-69.22565692699993,-20.73627807999992],[-69.23218149899992,-20.736613839999904],[-69.24103279099995,-20.734848124999928],[-69.24794212499995,-20.726195857999926],[-69.2621728709999,-20.717657567999936],[-69.27021517599991,-20.71094410099994],[-69.27646925599993,-20.70949376199991],[-69.28881000099994,-20.709349998999926],[-69.29654999999991,-20.70651999899991],[-69.2975899999999,-20.704959998999925],[-69.30807999899992,-20.702969998999947],[-69.31471999999991,-20.703469998999935],[-69.33044999899994,-20.71341999899994],[-69.33942999899995,-20.713969999999904],[-69.35189999999994,-20.718959999999925],[-69.36636000099992,-20.72088999899995],[-69.37882999999994,-20.728799998999932],[-69.38886999899995,-20.730419998999935],[-69.39117000099992,-20.731860000999916],[-69.40140999899995,-20.732449999999915],[-69.40615999999994,-20.73093999899993],[-69.41777999899995,-20.73165999999992],[-69.44019999999995,-20.728869998999926],[-69.4531399999999,-20.73156999999992],[-69.45946999899991,-20.730809999999906],[-69.47505999999993,-20.734289177999926],[-69.47505998999992,-20.253207902999918],[-69.44298953299995,-20.253976284999908],[-69.4257399999999,-20.258479999999906],[-69.42039695299991,-20.25561188799992],[-69.4025732419999,-20.254699966999908],[-69.38620791199992,-20.256037085999935],[-69.3555970939999,-20.254103998999938],[-69.3307034799999,-20.247346510999932],[-69.29701246299993,-20.25082107299994],[-69.2792997379999,-20.246270414999913],[-69.25717357299993,-20.24337417399994],[-69.24668922399991,-20.24543885199995],[-69.23170999999991,-20.245909999999924],[-69.2246458059999,-20.243546592999905],[-69.21539405499993,-20.24360915899996],[-69.2025445779999,-20.24539121899994],[-69.19257755899991,-20.24939463599992],[-69.1858889049999,-20.25568742999991],[-69.17953999999992,-20.256739999999922],[-69.17077401499995,-20.264571185999955],[-69.1543309939999,-20.269569927999953],[-69.14318821799992,-20.270586476999938],[-69.13135509599994,-20.274964170999908],[-69.1236750729999,-20.27354413699993],[-69.11788421199992,-20.27739338799995],[-69.11525565699992,-20.284222434999947],[-69.11281810899993,-20.287127583999904],[-69.10882722699995,-20.28905927699992],[-69.10125888899995,-20.289613139999915],[-69.09277401899993,-20.287525999999957],[-69.0872221809999,-20.287614659999917],[-69.06751285899992,-20.29723712099991],[-69.06162999999992,-20.295129999999915],[-69.04926876699994,-20.29466510599991],[-69.04227969399994,-20.288539287999924],[-69.03317923199995,-20.291395998999917],[-69.02118079699994,-20.289093528999956],[-69.01755522799994,-20.283853206999936],[-69.01316516499992,-20.28163722699992],[-69.0093884879999,-20.27709020599991],[-69.00979861299993,-20.271917061999943],[-69.00701455299992,-20.25642855199993],[-68.99917666899995,-20.246440881999945],[-68.99209999999994,-20.24150999999995],[-68.98673098899991,-20.23562680799995],[-68.98195169399992,-20.22934356099995],[-68.98087518799991,-20.224334187999943],[-68.97587072899995,-20.21759017599993],[-68.96305417699995,-20.207959682999956],[-68.96147480299993,-20.204383804999907],[-68.96217111599992,-20.19520857899994],[-68.96553999999992,-20.187459992999948],[-68.96282000499991,-20.18274998699991],[-68.97026999999991,-20.178829999999948],[-68.98630032299991,-20.178013777999922],[-68.99079159399992,-20.172993857999927],[-68.9915242639999,-20.162869761999957],[-68.9975399999999,-20.149589999999932],[-68.9920793359999,-20.14555306299991],[-68.99254509699995,-20.14113610399994],[-68.99669999999992,-20.13686999999993],[-69.00121281899993,-20.126709406999908],[-69.00720881099994,-20.120236891999923],[-69.00907016999992,-20.11414008199995],[-69.00842500899995,-20.104831924999928],[-69.00655244899991,-20.100870794999935],[-68.99570724099993,-20.08916176999992],[-68.9836699459999,-20.081209976999958],[-68.98076000999993,-20.067880002999914],[-68.98084999999992,-20.05728999999991],[-68.97879368999992,-20.047903876999953],[-68.96985785899994,-20.025920611999936],[-68.96913399499994,-20.02001187199994],[-68.97158000099995,-20.00652999999994],[-68.97851563299992,-19.997272837999958],[-68.97961988799995,-19.99395480399994],[-68.97900257599991,-19.987798390999956],[-68.98241285699993,-19.981681109999954],[-68.9805755939999,-19.966089352999916],[-68.97900000599992,-19.962850002999915],[-68.98043156299991,-19.95483696699995],[-68.97858789199995,-19.937549089999948],[-68.98631413299995,-19.922687164999957],[-68.99252634999993,-19.92022832899994]]]}},{"type":"Feature","properties":{"cut":1404,"comuna":"HUARA"},"geometry":{"type":"Polygon","coordinates":[[[-69.61966887299991,-19.02443420499992],[-69.64460086399993,-19.020946413999923],[-69.66467247199995,-19.027454391999925],[-69.68786371699991,-19.02568860599996],[-69.71058537399995,-19.02668256499993],[-69.7243366319999,-19.028784517999952],[-69.73604148699991,-19.033143829999915],[-69.7489718029999,-19.03205259799995],[-69.75917786999992,-19.036285449999923],[-69.7879518929999,-19.04055238999996],[-69.79085010499995,-19.043721010999946],[-69.79628192399991,-19.046146679999936],[-69.81446253299993,-19.045484488999932],[-69.8243118769999,-19.047121639999943],[-69.84382890599994,-19.04472906199993],[-69.85268889299994,-19.040775399999916],[-69.8655230679999,-19.03973067699991],[-69.87184928699992,-19.036519958999918],[-69.88463679499995,-19.03404632899992],[-69.9044165219999,-19.045174191999934],[-69.92525242999994,-19.052160242999946],[-69.93156193399994,-19.05300958199996],[-69.94522856999993,-19.049573937999924],[-69.95041981699995,-19.049877118999916],[-69.9692206329999,-19.06348788899993],[-69.97418912299992,-19.065034083999933],[-69.9793346809999,-19.06394503899992],[-69.98627071099992,-19.069885769999928],[-70.03840845699995,-19.095190740999954],[-70.09901532299995,-19.119404215999907],[-70.1305571339999,-19.154305060999945],[-70.2866453339999,-19.229991312999914],[-70.28153999999995,-19.230749999999944],[-70.28120999999993,-19.23867999999993],[-70.2828199999999,-19.240689999999915],[-70.28082999999992,-19.243099999999913],[-70.28195999999991,-19.24625999999995],[-70.28095999999994,-19.24813999999992],[-70.2813099999999,-19.252539999999954],[-70.27912999999995,-19.25362999999993],[-70.27861999999993,-19.25729999999993],[-70.28233999999992,-19.273859999999956],[-70.28215999999992,-19.27920999999992],[-70.28511999999995,-19.280059999999935],[-70.2856099999999,-19.28326999999996],[-70.28390999899995,-19.28488000099992],[-70.28406999999993,-19.292769999999905],[-70.28098999999992,-19.29475999999994],[-70.27811999999994,-19.294130000999928],[-70.2777099999999,-19.295200000999955],[-70.28041999999994,-19.300139999999942],[-70.2795999999999,-19.304709999999943],[-70.28553999999991,-19.308619999999905],[-70.27868999999993,-19.310039999999958],[-70.27764999999994,-19.313669999999945],[-70.27590999999995,-19.31619000099994],[-70.27372999999994,-19.31697000099996],[-70.27361999999994,-19.319549999999936],[-70.2700299999999,-19.323399999999936],[-70.26642999899991,-19.323479999999904],[-70.26620999999994,-19.32551000099994],[-70.25924999999995,-19.32670000099995],[-70.25636999999995,-19.329579999999908],[-70.25607999999994,-19.33642999999995],[-70.26047999999992,-19.341279999999927],[-70.2621499999999,-19.33964999999995],[-70.2634799999999,-19.341289999999958],[-70.26220999999993,-19.347789999999918],[-70.26063999999991,-19.34796999999992],[-70.26170999999994,-19.352479999999957],[-70.26024999999993,-19.35519999999991],[-70.25642999999991,-19.356609999999932],[-70.2532599999999,-19.36349999999993],[-70.2518399999999,-19.362859999999955],[-70.24991999999992,-19.365609999999947],[-70.24749999999995,-19.366069999999922],[-70.24703999999991,-19.367369999999937],[-70.24827999999991,-19.368619999999908],[-70.2441399999999,-19.372859999999946],[-70.23894999999993,-19.38346999999993],[-70.2356663999999,-19.385773083999936],[-70.23779999999994,-19.389479999999935],[-70.23843999999991,-19.396729999999934],[-70.23691999999994,-19.398399999999924],[-70.23668999999995,-19.40267999999992],[-70.23489999999993,-19.404339999999934],[-70.23086999999992,-19.40387999999996],[-70.22586999999993,-19.407199999999932],[-70.22431999999992,-19.412469999999928],[-70.22787999999991,-19.415809999999908],[-70.22851999999995,-19.41834999999992],[-70.22725999999994,-19.41879999999992],[-70.22898999999995,-19.426069999999925],[-70.22493999999995,-19.430759999999907],[-70.22484999999995,-19.433809999999937],[-70.22498999999993,-19.436659999999904],[-70.22748999999993,-19.44076999999993],[-70.21748999999994,-19.446279999999945],[-70.21798999999993,-19.44897999999995],[-70.21548999999993,-19.454109999999957],[-70.21588999999994,-19.459449999999947],[-70.21902999999992,-19.464609999999936],[-70.21855999999991,-19.467879999999923],[-70.2155899999999,-19.471979999999917],[-70.2159499999999,-19.475739999999917],[-70.21415999999994,-19.47822999999994],[-70.21532999999994,-19.481269999999938],[-70.21235999999993,-19.48342999999994],[-70.21215999999993,-19.487769999999955],[-70.20907999999991,-19.491279999999904],[-70.21071999999992,-19.494399999999928],[-70.20970999999992,-19.494239999999934],[-70.20881999999995,-19.496369999999956],[-70.20549999999992,-19.495219999999904],[-70.20218999999992,-19.49762999999996],[-70.20378999899992,-19.50108999999992],[-70.20221999899991,-19.504359999999906],[-70.20447999999993,-19.50508999999994],[-70.20384999999993,-19.50678999999991],[-70.2060699999999,-19.508599999999944],[-70.2023999999999,-19.514339999999947],[-70.20342999999991,-19.517339999999933],[-70.20195999999993,-19.521799999999928],[-70.2075299999999,-19.528149999999926],[-70.20794999999993,-19.530269999999916],[-70.21113999999994,-19.53012999999993],[-70.21032999999994,-19.530959999999936],[-70.21163999899994,-19.532039999999938],[-70.21057999999994,-19.53319999999991],[-70.21228999999994,-19.534809999999936],[-70.20956999999993,-19.539669999999944],[-70.21113999999994,-19.544449999999927],[-70.20674999999994,-19.552229999999952],[-70.20583999999991,-19.55720999999994],[-70.20629999999994,-19.558749999999918],[-70.21201999999994,-19.560889999999915],[-70.21123999999992,-19.56155999999993],[-70.21309999999994,-19.562509999999918],[-70.21359999999993,-19.564569999999947],[-70.21227999999991,-19.566259999999943],[-70.20916999999992,-19.56504999999993],[-70.20961999999992,-19.566419999999937],[-70.20619999999991,-19.567209999999932],[-70.2068999999999,-19.570409999999924],[-70.20548999999994,-19.570829999999944],[-70.2040399999999,-19.57415999999995],[-70.20529999999991,-19.57606999999996],[-70.2041999999999,-19.578929999999957],[-70.20571999999993,-19.581609999999955],[-70.20476999899995,-19.581819999999936],[-70.2061799999999,-19.589879999999937],[-70.21352999999993,-19.596649999999954],[-70.22554999999994,-19.59964999999994],[-70.22879999999992,-19.59979999999996],[-70.23201999999992,-19.598129999999912],[-70.23779999999994,-19.59865999999994],[-70.23710999999992,-19.599509999999952],[-70.2402899999999,-19.60063999999994],[-70.2390499999999,-19.600589999999954],[-70.23952999999995,-19.602529999999945],[-70.23835999999994,-19.60217999999992],[-70.23918999999995,-19.603699999999947],[-70.2374999999999,-19.602429999999913],[-70.23613999999992,-19.60426999999993],[-70.23349999999994,-19.604069999999922],[-70.23223999999993,-19.606609999999932],[-70.22876999999994,-19.605959999999925],[-70.22757999999993,-19.60785999999996],[-70.22572999999994,-19.607489999999927],[-70.22514999999993,-19.609509999999943],[-70.22375999999991,-19.60871999999995],[-70.22404999999992,-19.611189999999908],[-70.22105999999991,-19.612499999999955],[-70.2212199999999,-19.614029999999957],[-70.21856999999994,-19.61385999999993],[-70.21608999999995,-19.615719999999953],[-70.21326999999991,-19.614679999999908],[-70.20735999999994,-19.61955999999992],[-70.20308999999992,-19.62062999999995],[-70.20294999999993,-19.623029999999915],[-70.20601999999991,-19.623989999999935],[-70.2057299999999,-19.625339999999937],[-70.20722999999992,-19.625599999999906],[-70.2064299999999,-19.626739999999927],[-70.20852999999994,-19.628259999999955],[-70.20460999999995,-19.62913999999995],[-70.20253999999994,-19.62764999999996],[-70.20252999999991,-19.629989999999907],[-70.20021999999994,-19.631219999999928],[-70.20032999999995,-19.632889999999918],[-70.19632999999993,-19.63483999999994],[-70.19312999999994,-19.63489999999996],[-70.1912099999999,-19.637419999999906],[-70.18956999999995,-19.63763999999992],[-70.1826999999999,-19.64766999999995],[-70.17768999999993,-19.648489999999924],[-70.17304999999993,-19.652459999999905],[-70.16911999999991,-19.65820999999994],[-70.16991999999993,-19.662099999999953],[-70.17363999999992,-19.66829999999993],[-70.17274999999995,-19.669989999999927],[-70.17587999999995,-19.670729999999935],[-70.17425999999995,-19.671589999999924],[-70.17584999999991,-19.672679999999957],[-70.17166999999995,-19.673599999999908],[-70.17064999999991,-19.675939999999912],[-70.16806999999994,-19.676489999999944],[-70.16769999999991,-19.678429999999935],[-70.16528999999991,-19.67771999999991],[-70.1634699999999,-19.681649999999934],[-70.16526999999991,-19.682789999999954],[-70.16392999999994,-19.683599999999956],[-70.16393999999991,-19.685589999999934],[-70.16657999999995,-19.68939999999992],[-70.1706299999999,-19.691079999999943],[-70.17040999999995,-19.69434999999993],[-70.17266999999993,-19.694789999999955],[-70.17273999999992,-19.696929999999952],[-70.17410999999993,-19.696699999999908],[-70.1749299999999,-19.698209999999904],[-70.1705399999999,-19.698269999999923],[-70.17131999999992,-19.699649999999906],[-70.1705399999999,-19.699019999999905],[-70.16904999999991,-19.701589999999953],[-70.1674099999999,-19.701929999999948],[-70.16561999999993,-19.70479999999992],[-70.16640999999993,-19.705469999999934],[-70.1644399999999,-19.706839999999943],[-70.16491999999994,-19.710119999999904],[-70.16243999999995,-19.710659999999905],[-70.16191999999995,-19.713479999999947],[-70.1559299999999,-19.714959999999905],[-70.15505999999993,-19.716489999999908],[-70.1557699999999,-19.72001999999992],[-70.1534299999999,-19.719789999999932],[-70.1520099999999,-19.722359999999924],[-70.15199999999993,-19.725529999999935],[-70.15321999999992,-19.726489999999956],[-70.15177999999992,-19.72795999999994],[-70.15240999999992,-19.72974999999991],[-70.15057999999993,-19.73455999999993],[-70.15219999999994,-19.740789999999947],[-70.15536999999995,-19.74219999999991],[-70.15474999999992,-19.743469999999945],[-70.15598999999992,-19.744149999999934],[-70.15456999999992,-19.744449999999915],[-70.1549599999999,-19.747169999999926],[-70.15316999999993,-19.748239999999953],[-70.15240999999992,-19.75082999999995],[-70.15557999999993,-19.75798999999995],[-70.15420999999992,-19.75834999999995],[-70.15479999999991,-19.76033999999993],[-70.15868999999992,-19.766189999999938],[-70.15150999999992,-19.774409999999932],[-70.14677999999992,-19.785369999999944],[-70.14873999999992,-19.788779999999917],[-70.1484999999999,-19.794479999999908],[-70.15113999999994,-19.798979999999915],[-70.1516499999999,-19.80289999999991],[-70.15042999999991,-19.807099999999934],[-70.15158999999994,-19.81504999999993],[-70.15373999999991,-19.818449999999928],[-70.15773999999993,-19.820459999999912],[-70.1562199999999,-19.82379999999995],[-70.15690999999993,-19.82627999999994],[-70.16270223499993,-19.82735674399993],[-70.1637199999999,-19.82574000099993],[-70.16542003899991,-19.828651901999933],[-70.16261055799993,-19.827671177999946],[-70.16251999999992,-19.830739999999935],[-70.15949999999992,-19.830969999999922],[-70.15792999999991,-19.833329999999933],[-70.15318999999994,-19.834019999999953],[-70.1487899999999,-19.837869999999953],[-70.14751999999993,-19.84382999999991],[-70.15012999999993,-19.846049999999934],[-70.14990999999992,-19.847809999999924],[-70.14807999999994,-19.847479999999905],[-70.1478899999999,-19.849149999999952],[-70.14507999999995,-19.851709999999912],[-70.14404999999994,-19.85024999999996],[-70.14249999999993,-19.851189999999917],[-70.14318999999995,-19.852259999999944],[-70.13855999999993,-19.860589999999945],[-70.13833999999991,-19.863629999999944],[-70.13992999999994,-19.867299999999943],[-70.13724999999994,-19.868419999999958],[-70.13645999999994,-19.87268999999992],[-70.1319299999999,-19.87952999999993],[-70.13144999999992,-19.884579999999914],[-70.13310999999993,-19.887489999999957],[-70.14285999999993,-19.893549999999948],[-70.14343999999994,-19.89727999999991],[-70.14647999999994,-19.90005999999994],[-70.14711999999992,-19.903189999999938],[-70.14643999999993,-19.906639999999925],[-70.14199999999994,-19.907179999999926],[-70.14020999999991,-19.91008999999991],[-70.13880999999992,-19.919179999999926],[-70.13763999999992,-19.919439999999952],[-70.13854999999995,-19.920429999999953],[-70.1372399999999,-19.923379999999952],[-70.13801999999993,-19.929869999999937],[-70.14194999999995,-19.933119999999917],[-70.14209999999991,-19.93637999999993],[-70.13988999999992,-19.939619999999934],[-70.13993999999991,-19.942109999999957],[-70.13641999999993,-19.943739999999934],[-70.13817999999992,-19.95279999999991],[-70.13605999999993,-19.957079999999905],[-70.1359599999999,-19.96028999999993],[-70.1377599999999,-19.963379999999916],[-70.13598999999994,-19.964759999999956],[-70.13626999999991,-19.967339999999922],[-70.13195999999994,-19.970449999999914],[-70.13269999999994,-19.972129999999936],[-70.12740999999994,-19.976689999999905],[-70.12751999999995,-19.981169999999906],[-70.12452999999994,-19.98810999999995],[-70.12273999999991,-19.988539999999944],[-70.12470999999994,-19.994639999999947],[-70.12240999999995,-19.998399999999947],[-70.12450999999993,-20.005529999999908],[-70.12439999999992,-20.00825999999995],[-70.12278999999995,-20.010409999999922],[-70.12412999999992,-20.014929999999936],[-70.1280999999999,-20.019869999999912],[-70.12659999999994,-20.023309999999924],[-70.12775999999991,-20.02386999999993],[-70.12966999999992,-20.029879999999935],[-70.12822999999992,-20.033549999999934],[-70.12914999999992,-20.036859999999933],[-70.12815999999992,-20.037969999999916],[-70.12806999999992,-20.04729999999995],[-70.13047999999992,-20.050809999999956],[-70.13161999999994,-20.058179999999936],[-70.1362299999999,-20.060929999999928],[-70.1328499999999,-20.060169999999914],[-70.13265879999994,-20.06332001599992],[-70.09893999999991,-20.085039999999935],[-69.89304999899991,-20.048539999999946],[-69.81539000099991,-20.102149999999938],[-69.3242266179999,-19.98934016299995],[-69.29194444899991,-19.97861456299995],[-69.2822917549999,-19.97895246899992],[-69.27297269299993,-19.97509970099992],[-69.24538184399995,-19.978274916999908],[-69.2200725909999,-19.985017417999927],[-69.1964586119999,-19.98601199399991],[-69.18450232499993,-19.991474311999923],[-69.17788575199995,-19.991744758999914],[-69.17428879599993,-19.99007833199994],[-69.16390649899995,-19.990146830999947],[-69.15135303699992,-19.988429392999933],[-69.1465470839999,-19.986030969999945],[-69.14200096999991,-19.97947184499992],[-69.1325918789999,-19.975172271999952],[-69.12688441999995,-19.968379222999943],[-69.12341386199995,-19.968498863999912],[-69.11884469799992,-19.970582169999943],[-69.10979629999991,-19.970880983999905],[-69.09888599199991,-19.96707860899994],[-69.0951188109999,-19.963447665999922],[-69.08628749899992,-19.96342287999994],[-69.08386994099993,-19.962339996999958],[-69.07077022399994,-19.94485452099991],[-69.0637372299999,-19.945443153999918],[-69.06087044999992,-19.94333466699993],[-69.05269004999991,-19.94072971399993],[-69.05383235599993,-19.928775569999914],[-69.04388691499992,-19.925965641999937],[-69.03745778899992,-19.922421985999904],[-69.02683130199995,-19.92330980899993],[-69.0213639609999,-19.92075462999992],[-69.01767915999994,-19.920947070999944],[-69.0103099989999,-19.91673000199995],[-69.0407511329999,-19.86651034399995],[-69.03981445199992,-19.837294749999955],[-69.01455126999991,-19.825153059999934],[-68.9297366799999,-19.74677182599993],[-68.9290918609999,-19.67466873199993],[-68.90863999899994,-19.599699999999928],[-68.99570000099993,-19.566769999999906],[-69.1022299999999,-19.496569999999906],[-69.02318001099991,-19.331590005999942],[-69.07828002899993,-19.273440113999925],[-69.08807343899991,-19.277137523999954],[-69.09072016599993,-19.271281227999907],[-69.09640194699995,-19.27023577999995],[-69.10578913899991,-19.276541249999923],[-69.10730953099994,-19.27194894899992],[-69.11724124799991,-19.267590437999957],[-69.12669560799992,-19.271873644999914],[-69.13226188699991,-19.287066464999953],[-69.13658579299994,-19.292127880999942],[-69.16747702399994,-19.312715839999953],[-69.17052999999993,-19.31239999999991],[-69.17003954499995,-19.319490336999934],[-69.17348278899993,-19.327210788999935],[-69.17870999999991,-19.32964999999996],[-69.18545378999994,-19.344896415999926],[-69.18540826299994,-19.352513788999943],[-69.18794248599994,-19.35353691599994],[-69.20002140899993,-19.36450849499994],[-69.22041499199992,-19.363138517999914],[-69.22483999999992,-19.37256999999994],[-69.22529651299993,-19.37744888599991],[-69.22962058199994,-19.38194621899993],[-69.23456170399993,-19.391281061999905],[-69.24217813299992,-19.394535265999934],[-69.2477302289999,-19.393947814999933],[-69.2552520669999,-19.390245688999926],[-69.26531999999992,-19.392249999999933],[-69.27310207799991,-19.386361424999905],[-69.27488578799995,-19.38766758099996],[-69.2768291399999,-19.39273639499993],[-69.29976455199994,-19.395548360999953],[-69.3096492599999,-19.40358058399994],[-69.31422918599992,-19.405724234999923],[-69.31446999999991,-19.411229999999932],[-69.31663999999995,-19.413559999999904],[-69.31688999999994,-19.41742999999991],[-69.32156999999995,-19.42486999999994],[-69.3203299999999,-19.43228999999991],[-69.31287999999995,-19.43930999999992],[-69.31305999999995,-19.44181999999995],[-69.31924999999995,-19.443029999999908],[-69.32188999999994,-19.448459999999955],[-69.32864999999993,-19.45013999999992],[-69.33258999999993,-19.453169999999943],[-69.33656999999994,-19.45906999999994],[-69.3362899999999,-19.46109999999993],[-69.33837999999992,-19.463949999999954],[-69.34016999999994,-19.470399999999927],[-69.34546999999992,-19.478429999999946],[-69.34674999999993,-19.48297999999994],[-69.35531999999995,-19.49010999999996],[-69.35639999999995,-19.49440999999996],[-69.3609899999999,-19.499209999999948],[-69.37002999999993,-19.50254999999993],[-69.38169999999991,-19.514829999999904],[-69.3901699999999,-19.517279999999914],[-69.39639999999991,-19.520689999999945],[-69.39803999999992,-19.519999999999925],[-69.4097799999999,-19.528009999999938],[-69.41739999999993,-19.529679999999928],[-69.4265499999999,-19.535949999999957],[-69.43766999999991,-19.53666999999996],[-69.44501999999994,-19.538899999999956],[-69.45839999999993,-19.54810999999995],[-69.47694999999993,-19.549839999999904],[-69.4851799999999,-19.553379999999947],[-69.49803999999995,-19.555779999999913],[-69.51890999999995,-19.556799999999953],[-69.54178999999993,-19.566239999999937],[-69.54669999999993,-19.57051999999993],[-69.5548399999999,-19.57469999999995],[-69.56474999999995,-19.57642999999996],[-69.57406999999995,-19.582889999999907],[-69.5794699999999,-19.582999999999913],[-69.58656999999994,-19.588469999999916],[-69.58804999999995,-19.59266999999994],[-69.59091999999993,-19.594499999999925],[-69.5978199999999,-19.606589999999926],[-69.61160999999993,-19.61462999999992],[-69.62086999999991,-19.617689999999925],[-69.63361999999995,-19.619819999999947],[-69.63959999999992,-19.62354999999991],[-69.64956999999993,-19.627269999999953],[-69.65784999999994,-19.627779999999916],[-69.66284999999993,-19.629809999999907],[-69.66896999999994,-19.63555999999994],[-69.6769099999999,-19.63990999999993],[-69.6843399999999,-19.63999999999993],[-69.68814999999995,-19.641369999999938],[-69.69024999999993,-19.644499999999937],[-69.70260999999994,-19.652129999999943],[-69.70700999999991,-19.65751999999992],[-69.71539999999993,-19.66253999999992],[-69.7237199999999,-19.67029999999994],[-69.7262199999999,-19.67596999999995],[-69.73973999999993,-19.69043999999991],[-69.75077075299993,-19.695822867999937],[-69.74948999999992,-19.276299999999935],[-69.74055757799994,-19.271608838999953],[-69.7282272249999,-19.261507774999927],[-69.71677145399991,-19.261675677999904],[-69.7076069009999,-19.26378849799994],[-69.70087185699992,-19.268393524999908],[-69.6933313429999,-19.26567888799991],[-69.6801999999999,-19.267699999999934],[-69.6729203829999,-19.26532303999994],[-69.65751077699991,-19.263417976999904],[-69.6430781759999,-19.25846211499993],[-69.63152850499995,-19.24098460299996],[-69.62523043599992,-19.238138427999957],[-69.60095999999993,-19.23130999999995],[-69.60044763399992,-19.215683313999932],[-69.59505506399995,-19.20824044299991],[-69.58618999999993,-19.203789999999913],[-69.58013456299994,-19.209863542999926],[-69.5704414889999,-19.213806056999942],[-69.55043896599994,-19.214061028999936],[-69.54626230199995,-19.213152114999957],[-69.54142713899995,-19.209934545999943],[-69.5394750669999,-19.206185030999904],[-69.53729111099994,-19.204754365999918],[-69.53028003199995,-19.203614630999937],[-69.52160539999994,-19.20755221299993],[-69.51788526699994,-19.207806198999947],[-69.50744466299994,-19.201677435999954],[-69.49260823499992,-19.199601677999908],[-69.48269262999992,-19.194806627999924],[-69.47894955899994,-19.191276571999936],[-69.47377759699992,-19.180581937999932],[-69.46577435899991,-19.173795792999954],[-69.45764291199993,-19.16113517599996],[-69.45459282599995,-19.15358587599991],[-69.44742324899994,-19.14999265499995],[-69.43839175799991,-19.142795960999933],[-69.43698748699995,-19.128065824999908],[-69.42864456299992,-19.115111129999946],[-69.42560410599992,-19.104012239999918],[-69.4255599999999,-19.09791999999993],[-69.4216419039999,-19.087828970999908],[-69.42070629699992,-19.081966451999904],[-69.41692999999992,-19.07651999999996],[-69.40172614099993,-19.070553798999924],[-69.39713949199995,-19.063776289999907],[-69.39501842299995,-19.058085799999958],[-69.39661933399992,-19.04774374099992],[-69.40269858799991,-19.034812917999943],[-69.4200883609999,-19.024973058999933],[-69.43607705699992,-19.023950939999906],[-69.44980355899992,-19.02519683999992],[-69.45515201799992,-19.027086123999936],[-69.45954719499991,-19.03182893299993],[-69.46731523499994,-19.032830674999957],[-69.4735340499999,-19.036434320999945],[-69.48392374699995,-19.03333919599993],[-69.49029499599993,-19.029865593999943],[-69.50987061799992,-19.02654107999996],[-69.5159654229999,-19.027183890999936],[-69.52149518699991,-19.025356375999934],[-69.5317602849999,-19.02589195799993],[-69.54032290099991,-19.028867516999924],[-69.56968547199995,-19.02700800699995],[-69.59807139799995,-19.02104860499992],[-69.61966887299991,-19.02443420499992]]]}},{"type":"Feature","properties":{"cut":2301,"comuna":"TOCOPILLA"},"geometry":{"type":"Polygon","coordinates":[[[-69.9403908999999,-21.422990540999933],[-69.94255888899994,-21.425366973999928],[-69.95211901199991,-21.425527578999947],[-69.95862901499993,-21.42821929699994],[-69.96052819599993,-21.430374250999932],[-69.96716091999991,-21.432269662999943],[-69.96930076199993,-21.43155540999993],[-69.9717713309999,-21.433081045999927],[-69.98301894799994,-21.434902947999944],[-69.98933167699994,-21.43319887499996],[-69.99618116599993,-21.437521727999922],[-69.99855081099992,-21.43694923299995],[-70.00716052399991,-21.438896290999935],[-70.01065074599995,-21.436188537999953],[-70.02093893299991,-21.43411664799993],[-70.02682944999992,-21.429201359999922],[-70.03252520399991,-21.429692209999928],[-70.0353442519999,-21.42664843299991],[-70.03981081099994,-21.424714604999906],[-70.04755065099994,-21.425741237999944],[-70.05827711799992,-21.430006745999947],[-70.0554899999999,-21.440009999999916],[-70.05818999999991,-21.444669999999917],[-70.0578999999999,-21.44656999999995],[-70.06164999999993,-21.45100999999994],[-70.06096999999994,-21.455949999999916],[-70.06443999999993,-21.457409999999925],[-70.06643999999994,-21.461179999999956],[-70.06735999999995,-21.468659999999943],[-70.07217999999995,-21.473409999999944],[-70.0742699999999,-21.479059999999947],[-70.07879999999994,-21.48207999999994],[-70.08119999999991,-21.486329999999953],[-70.08060999999992,-21.487649999999917],[-70.0818799999999,-21.489979999999946],[-70.0807299999999,-21.490919999999903],[-70.08173999999991,-21.492959999999925],[-70.08019999999993,-21.499579999999924],[-70.0778499999999,-21.503669999999943],[-70.0786799999999,-21.505139999999926],[-70.07312999999994,-21.509729999999934],[-70.07574999999991,-21.512349999999913],[-70.07198999999991,-21.517499999999927],[-70.07073999999994,-21.530469999999923],[-70.07469999999995,-21.538869999999918],[-70.07792999999992,-21.540059999999926],[-70.0824399999999,-21.544449999999927],[-70.08438999999993,-21.544119999999907],[-70.08897999999994,-21.552539999999908],[-70.09167999999994,-21.550979999999925],[-70.09345999999994,-21.552569999999946],[-70.09044999999992,-21.555639999999926],[-70.09091999999993,-21.557849999999917],[-70.08974999999992,-21.559169999999938],[-70.09078999999991,-21.564059999999927],[-70.0900299999999,-21.56585999999993],[-70.0927299999999,-21.56938999999994],[-70.09181999999993,-21.571359999999913],[-70.0928899999999,-21.57337999999993],[-70.09506999999991,-21.57295999999991],[-70.09610999999995,-21.575089999999932],[-70.09237999999993,-21.58552999999995],[-70.09453999999994,-21.592679999999916],[-70.09740999999991,-21.595009999999945],[-70.10379999999992,-21.609689999999944],[-70.10664999999995,-21.610259999999926],[-70.10790999999995,-21.613579999999956],[-70.11236999999994,-21.61453999999992],[-70.12090999999992,-21.621689999999944],[-70.12396999999993,-21.630399999999952],[-70.13477999999992,-21.634879999999953],[-70.13884999999993,-21.633639999999957],[-70.1406199999999,-21.63510999999994],[-70.1431399999999,-21.634219999999914],[-70.14637999999991,-21.636679999999956],[-70.14521999999994,-21.638319999999908],[-70.14528999999993,-21.64292999999992],[-70.14660999999995,-21.643709999999942],[-70.14674999999994,-21.64763999999991],[-70.15057999999993,-21.657009999999957],[-70.14964999999995,-21.661569999999926],[-70.15085999999991,-21.663249999999948],[-70.15141999999992,-21.684609999999907],[-70.15421999999995,-21.688299999999913],[-70.15277999999995,-21.695439999999905],[-70.14633999999995,-21.70611999999994],[-70.14544999999993,-21.70932999999991],[-70.14622999999995,-21.71345999999994],[-70.14468999999991,-21.718179999999904],[-70.1456399999999,-21.722669999999937],[-70.1488599999999,-21.72577999999993],[-70.14953999999994,-21.728369999999927],[-70.14953999999994,-21.73732999999993],[-70.15133999999995,-21.74102999999991],[-70.14933999999994,-21.74625999999995],[-70.15145732199994,-21.749397964999957],[-70.15445999999991,-21.748309999999947],[-70.15374999999995,-21.75365999999991],[-70.15572999999995,-21.756659999999954],[-70.15476999999993,-21.759489999999914],[-70.15830999999991,-21.76007999999996],[-70.1592599999999,-21.76240999999993],[-70.1569199999999,-21.76625999999993],[-70.1571899999999,-21.769579999999905],[-70.15544999999992,-21.770749999999907],[-70.14951999999994,-21.783319999999947],[-70.14748999999995,-21.785249999999905],[-70.1449199999999,-21.793459999999925],[-70.1445599999999,-21.801469999999938],[-70.14288999999991,-21.802469999999914],[-70.14314999999993,-21.80466999999993],[-70.14143999999993,-21.80621999999994],[-70.14184999999992,-21.80785999999995],[-70.14588999999995,-21.80896999999993],[-70.14705999999995,-21.81708999999995],[-70.14543999999995,-21.824919999999906],[-70.1433199999999,-21.82689999999991],[-70.14463999999992,-21.82863999999995],[-70.14311999999995,-21.833189999999945],[-70.14469999999994,-21.834209999999928],[-70.14601999999991,-21.84206999999992],[-70.14379999999994,-21.847729999999956],[-70.14861999999994,-21.85787999999991],[-70.14956999999993,-21.863929999999925],[-70.1487899999999,-21.86594999999994],[-70.15025999999995,-21.86812999999995],[-70.15072999999995,-21.873959999999954],[-70.15251999999992,-21.878649999999936],[-70.15749999999991,-21.884889999999928],[-70.16920999999991,-21.894169999999917],[-70.17077999999992,-21.893589999999904],[-70.17515999999995,-21.897869999999955],[-70.17836999999992,-21.899229999999932],[-70.18691999999993,-21.897539999999935],[-70.18837999999994,-21.899669999999958],[-70.19135999999992,-21.899489999999957],[-70.19071999999994,-21.903059999999925],[-70.18148999999994,-21.908279999999934],[-70.17918999999995,-21.912259999999947],[-70.17745999999994,-21.913069999999948],[-70.17930999999993,-21.916049999999927],[-70.17557999999991,-21.917989999999918],[-70.17228999999992,-21.92247999999995],[-70.17020999999994,-21.926749999999913],[-70.16987999999992,-21.931319999999914],[-70.17153999999994,-21.941979999999944],[-70.17583999999994,-21.953329999999937],[-70.17451999999992,-21.95724999999993],[-70.17504999999994,-21.96279999999996],[-70.17839999999995,-21.968429999999955],[-70.18718999999993,-21.975399999999922],[-70.18407999999994,-21.97562999999991],[-70.1828999999999,-21.97834999999992],[-70.18218999999993,-21.98858999999993],[-70.1838899999999,-21.996959999999945],[-70.19103999999993,-22.00833999899993],[-70.19504999999992,-22.009759998999925],[-70.19787999999994,-22.01338999999996],[-70.19580999899995,-22.01385999999991],[-70.19714999899992,-22.01649999999995],[-70.1962799989999,-22.021039998999925],[-70.19825999999995,-22.022629998999946],[-70.1949699999999,-22.024779999999907],[-70.19519999999994,-22.026379999999904],[-70.19781999899993,-22.028409998999905],[-70.1954600009999,-22.02875999999992],[-70.19455999999991,-22.03021999899994],[-70.1943757059999,-22.03434829799994],[-70.1962771179999,-22.036267063999958],[-70.19167475099994,-22.037316157999953],[-70.19220659599995,-22.040603871999906],[-70.19518610799992,-22.042166751999957],[-70.19296534199992,-22.043660532999922],[-70.19525583299992,-22.044556625999917],[-70.19344417199994,-22.046278701999938],[-70.19486980899995,-22.047485785999925],[-70.19353091599993,-22.04768409299993],[-70.19438250099995,-22.04855319899991],[-70.19276095899994,-22.048751473999914],[-70.19266535299994,-22.05037370599996],[-70.19079808799995,-22.05151885899994],[-70.18888246599994,-22.058869254999934],[-70.19321659099995,-22.06450435399995],[-70.19252409899991,-22.066318646999946],[-70.19575127299993,-22.068159642999944],[-70.19436444299993,-22.06836281099993],[-70.1956843769999,-22.07242961199995],[-70.1949837969999,-22.07862969799993],[-70.19623237999991,-22.082920845999922],[-70.19752347399992,-22.083255553999948],[-70.1966578119999,-22.083984535999946],[-70.19844404299994,-22.088126291999913],[-70.20381959199995,-22.092839340999944],[-70.2045765819999,-22.09190110399993],[-70.20803310699995,-22.093771441999934],[-70.20970835699995,-22.092382099999952],[-70.2096783149999,-22.093925209999952],[-70.21064304499993,-22.09455589299995],[-70.21071134899995,-22.093319444999906],[-70.21182034899994,-22.094858709999926],[-70.21419622799993,-22.09403885499995],[-70.21386611699995,-22.091868508999937],[-70.21434533799993,-22.093761110999935],[-70.21653457499991,-22.093751468999926],[-70.21688769699995,-22.094838490999905],[-70.21564481299993,-22.097953915999938],[-70.21356570499995,-22.09904845099993],[-70.2180030799999,-22.106879096999933],[-70.2140191339999,-22.11026062299993],[-70.2137739289999,-22.112894294999933],[-70.2162850009999,-22.117733856999905],[-70.21670157599993,-22.12427162399996],[-70.21818544299992,-22.125632218999954],[-70.21439059599993,-22.13156703599992],[-70.21730515099995,-22.138571577999926],[-70.21968717499993,-22.13953354599994],[-70.2207172869999,-22.14400472299991],[-70.22394999999995,-22.14954999999992],[-70.22533999899991,-22.16688999899992],[-70.23033999899991,-22.17092999999994],[-70.23122999999993,-22.173049999999932],[-70.23086999999992,-22.174579998999945],[-70.2282499989999,-22.174189999999953],[-70.2261999989999,-22.17613999999992],[-70.22352999899994,-22.18440999899991],[-70.22436999899992,-22.19061999899992],[-70.22596000099992,-22.19211999999993],[-70.22482999999994,-22.195449999999937],[-70.22937999899995,-22.20168999899994],[-70.22907999899991,-22.205339998999932],[-70.22547999999995,-22.209109998999907],[-70.22544999899992,-22.212449999999933],[-70.23102999999992,-22.222579998999947],[-70.22938999899992,-22.223179999999957],[-70.23118999999991,-22.226639999999918],[-70.22896999999995,-22.231049999999925],[-70.23284999899994,-22.23768999899994],[-70.23383999999993,-22.240689998999926],[-70.2330899989999,-22.24168999999995],[-70.24075999899992,-22.249909998999954],[-70.23860000099995,-22.251649998999937],[-70.23984999899994,-22.252559999999903],[-70.23878999899995,-22.253669999999943],[-70.23960999999991,-22.255189999999914],[-70.23590999899994,-22.25914999999992],[-70.2341699989999,-22.264589998999952],[-70.23506999999995,-22.26696999899991],[-70.23343999899993,-22.26902999999993],[-70.24171088499992,-22.281949622999946],[-70.24516110299993,-22.28064091999994],[-70.24763000099995,-22.285249998999916],[-70.24582999899991,-22.28537999899993],[-70.24563999899993,-22.287129998999944],[-70.24299999999994,-22.288619998999934],[-70.24387999899994,-22.292659999999955],[-70.23913999899992,-22.29493999999994],[-70.2379699999999,-22.303719998999952],[-70.23693999999995,-22.30397999899992],[-70.23815999999994,-22.30815999899994],[-70.2372299999999,-22.310960000999955],[-70.2396399989999,-22.313449998999943],[-70.23951999899992,-22.316469998999935],[-70.2467499999999,-22.323010000999943],[-70.24698999899994,-22.325749999999914],[-70.24922999899991,-22.324629999999956],[-70.25040999899994,-22.325429998999937],[-70.2505599989999,-22.329929998999944],[-70.24990999999994,-22.332529998999917],[-70.24887999999993,-22.332289998999954],[-70.24866999999995,-22.33576999999991],[-70.2507199989999,-22.33919999999995],[-70.24912999899993,-22.340909998999905],[-70.25214999899993,-22.34175999899992],[-70.24972999899995,-22.345339999999908],[-70.25522999899994,-22.35125999999991],[-70.25441999899994,-22.352559998999936],[-70.25675999999993,-22.356519998999943],[-70.25576999999993,-22.358109998999907],[-70.25660999999991,-22.361299999999915],[-70.2540899999999,-22.365479998999945],[-70.25519999999995,-22.366549998999915],[-70.24953999899992,-22.373159999999928],[-70.24469999999991,-22.376529998999956],[-70.2457100009999,-22.378779998999903],[-70.24468999899995,-22.38238999899994],[-70.24806999899994,-22.392729999999915],[-70.24958000099991,-22.395119998999917],[-70.25315999899993,-22.396189998999944],[-70.25227999999993,-22.398020000999907],[-70.25445999899995,-22.401829999999904],[-70.25415999899991,-22.405979998999953],[-70.25772999999992,-22.408279999999934],[-70.25758999899995,-22.411599998999918],[-70.25873999899994,-22.412789999999916],[-70.2635000009999,-22.413779998999928],[-70.26159999899994,-22.41566999899993],[-70.26176999899991,-22.418879999999945],[-70.26275999899991,-22.41906999999992],[-70.26158999899991,-22.419909998999913],[-70.26310999899994,-22.42014999999992],[-70.25684000099994,-22.423739999999952],[-70.25551000099995,-22.428109999999947],[-70.25900999999993,-22.432939998999927],[-70.2591399989999,-22.435859999999934],[-70.25680999999992,-22.43939999899993],[-70.25855999899994,-22.441079998999953],[-70.2587299999999,-22.44760999899995],[-70.26014999999995,-22.44954999899994],[-70.25913999999995,-22.450719999999933],[-70.26353999999992,-22.452309999999954],[-70.26309999999995,-22.45383999899991],[-70.26506999899993,-22.45545999999996],[-70.2666099999999,-22.461139999999943],[-70.25732999899992,-22.468899999999906],[-70.25425999899994,-22.47437999999994],[-70.25090999999992,-22.47583999999995],[-70.25070999899992,-22.477799998999956],[-70.24722999999994,-22.479079999999954],[-70.24311999999992,-22.483889998999928],[-70.23992999899991,-22.488989999999944],[-70.23886999899992,-22.49786999899993],[-70.23989999899993,-22.50069999899995],[-70.24311999899993,-22.501860000999955],[-70.24372999899992,-22.504279999999937],[-70.24646999999993,-22.504949998999905],[-70.24894999999992,-22.50807999999995],[-70.24545999999992,-22.51532999999995],[-70.24802999899993,-22.519159998999953],[-70.25031999899994,-22.51932999999991],[-70.2521999999999,-22.523309999999924],[-70.25006999999994,-22.530089999999916],[-70.25198999899993,-22.531129998999916],[-70.2509899989999,-22.531609998999954],[-70.25358999899993,-22.53669999999994],[-70.25366999999994,-22.54114999999996],[-70.2587499999999,-22.547479998999904],[-70.2614999999999,-22.547089999999912],[-70.2673299999999,-22.550160000999938],[-70.27098999899994,-22.548359999999946],[-70.27364999899993,-22.548749999999927],[-70.2735199999999,-22.55053999899991],[-70.26863999999995,-22.551029999999912],[-70.26835999899993,-22.552349998999944],[-70.26850999999994,-22.554739998999935],[-70.27125999999993,-22.557489999999916],[-70.27173999899992,-22.562589998999954],[-70.27915999999993,-22.569449998999914],[-70.28446999999994,-22.57134999999994],[-70.28052999899995,-22.573989999999924],[-70.27814999899994,-22.581579999999917],[-70.2810399999999,-22.586439999999925],[-70.2804799999999,-22.59044999999992],[-70.27772999899992,-22.594019999999944],[-70.27831999999995,-22.60119999899996],[-70.27192999999994,-22.60244999999992],[-70.2671099989999,-22.609389999999905],[-70.26742999899994,-22.614729999999952],[-70.26900999899993,-22.616879998999934],[-70.2687499999999,-22.622019998999917],[-70.2647199999999,-22.625239998999916],[-70.26469999999995,-22.630170000999954],[-70.26262504099992,-22.635986671999945],[-69.96454999999992,-22.42539999999991],[-69.96966028499992,-22.42051512799992],[-69.96853990399995,-22.416616276999946],[-69.97111499199991,-22.406275130999916],[-69.97068437299993,-22.40226513899995],[-69.97471001199995,-22.393734250999955],[-69.97444720099992,-22.390599654999903],[-69.97187257399992,-22.390544736999914],[-69.9735117319999,-22.386732826999946],[-69.97264541699991,-22.381915059999926],[-69.97781852899993,-22.374649415999954],[-69.97657268099994,-22.369693141999903],[-69.97809031199995,-22.359369131999927],[-69.9823937459999,-22.346968776999915],[-69.98146751799993,-22.344404476999955],[-69.97869248599994,-22.34262584499993],[-69.97703741299995,-22.33834000899992],[-69.96937380899993,-22.331105066999953],[-69.96660019899991,-22.32262715199994],[-69.96348135399995,-22.318088901999943],[-69.96404600699992,-22.314359494999906],[-69.96169986399991,-22.30566517299991],[-69.96207653899995,-22.301313242999925],[-69.9739511329999,-22.285386307999943],[-69.97180678199993,-22.279095853999934],[-69.97173979299993,-22.27467079899992],[-69.97459603999994,-22.26685640699992],[-69.97766197899995,-22.263429575999908],[-69.97639163999992,-22.261904990999938],[-69.97648086999993,-22.255599418999907],[-69.9743480539999,-22.25148734499993],[-69.96918782099993,-22.250741726999934],[-69.96613003099992,-22.248642940999957],[-69.95781079999995,-22.23216612199991],[-69.9504820599999,-22.228454162999924],[-69.9470556359999,-22.228644518999943],[-69.94039314499992,-22.234545582999942],[-69.93653841899993,-22.236258794999912],[-69.93458726099993,-22.235687723999945],[-69.93325476199993,-22.230024606999905],[-69.93149396099994,-22.22778791299993],[-69.90727104799993,-22.21969774599995],[-69.89228044399994,-22.20965642099992],[-69.87952653299993,-22.204183659999956],[-69.87638138699992,-22.20087766799992],[-69.8741965399999,-22.195712778999905],[-69.87172190099994,-22.18424377699995],[-69.87078412199992,-22.171939531999953],[-69.86854855099995,-22.167035824999914],[-69.86713512699993,-22.168174630999943],[-69.86476584799993,-22.167861253999945],[-69.86439606199991,-22.171352931999934],[-69.86132626999995,-22.174331606999942],[-69.85805779599991,-22.185297352999953],[-69.8550720739999,-22.18863019799994],[-69.85227393699995,-22.18895165099991],[-69.8492571939999,-22.18546057599991],[-69.84599311799991,-22.193085157999917],[-69.82855159099995,-22.193962230999944],[-69.8141211439999,-22.201012086999924],[-69.79558355299991,-22.19458863099993],[-69.78798961399991,-22.196362939999915],[-69.78124411399995,-22.19413404499994],[-69.7726437959999,-22.18908692599996],[-69.77093310999993,-22.185737193999955],[-69.77062328699992,-22.18289477499991],[-69.77383369599994,-22.17794559099991],[-69.77311992799991,-22.175242148999928],[-69.77415334099993,-22.17266418099996],[-69.77152060499992,-22.15608710799995],[-69.77636450599994,-22.148281587999918],[-69.77981596699993,-22.13317619499992],[-69.77913498599992,-22.123926257999926],[-69.78138357699993,-22.115038970999933],[-69.78199033899995,-22.103796017999912],[-69.77381689099991,-22.09415920099991],[-69.76028965499995,-22.088091574999908],[-69.75440911099992,-22.082671950999952],[-69.75473996399995,-22.07915001799995],[-69.7422143789999,-22.026686786999903],[-69.7881325379999,-21.95857778699991],[-69.78620144699994,-21.95159332399993],[-69.78309370599993,-21.94840416799991],[-69.78782279899991,-21.941279572999917],[-69.79052780699993,-21.939559904999953],[-69.7947789939999,-21.92456121999993],[-69.79765226299992,-21.922141112999952],[-69.79901930799991,-21.918812490999926],[-69.79768153099991,-21.913575625999954],[-69.80293005999994,-21.909258446999957],[-69.8055408969999,-21.901308825999934],[-69.81003362199993,-21.89956293499995],[-69.83002597899991,-21.896302964999904],[-69.83277241899992,-21.89212315599991],[-69.8434078969999,-21.888082649999944],[-69.84664016499994,-21.882073891999937],[-69.8474422999999,-21.877423991999933],[-69.85261287599991,-21.873509003999914],[-69.87191903999991,-21.86925034399991],[-69.88740251199994,-21.87105291499995],[-69.89805995499995,-21.87390716899995],[-69.90227436599992,-21.873042524999903],[-69.90420345799993,-21.870103120999943],[-69.83559337699995,-21.751981694999927],[-69.82940183799991,-21.55766220399994],[-69.8289043979999,-21.440581377999933],[-69.8317358839999,-21.442362200999924],[-69.84203503399993,-21.436732948999918],[-69.85303141599991,-21.439492298999937],[-69.85536333099992,-21.437248138999905],[-69.85812573099992,-21.43790968399992],[-69.86120887099992,-21.43684258099995],[-69.8633365039999,-21.43432955199995],[-69.8696762319999,-21.433508213999914],[-69.87347626799993,-21.436157172999913],[-69.88124391899993,-21.43687871499992],[-69.8844238069999,-21.434093336999922],[-69.89067840699994,-21.43160523499995],[-69.89941695699991,-21.430149695999944],[-69.90410602799994,-21.425140961999944],[-69.91238814499991,-21.429224419999912],[-69.91932362699993,-21.425603090999914],[-69.92472813799992,-21.426169113999947],[-69.93431894199995,-21.423763668999925],[-69.9403908999999,-21.422990540999933]]]}}]}